{"fetched_at":"2026-07-16T17:47:02.090Z","source":"https://celestrak.org/NORAD/elements/gp.php?NAME=STRIX&FORMAT=JSON","constellation":"synspective","records":[{"OBJECT_NAME":"STRIX-1","OBJECT_ID":"2022-113A","EPOCH":"2026-07-16T06:51:35.567712","CLASSIFICATION_TYPE":"U","MEAN_MOTION":15.41032354,"ECCENTRICITY":0.00055472,"INCLINATION":97.4475,"RA_OF_ASC_NODE":259.8519,"ARG_OF_PERICENTER":129.2297,"MEAN_ANOMALY":230.9443,"EPHEMERIS_TYPE":0,"NORAD_CAT_ID":53815,"ELEMENT_SET_NO":999,"REV_AT_EPOCH":21192,"BSTAR":0.00031753645,"MEAN_MOTION_DOT":0.00013033,"MEAN_MOTION_DDOT":0},{"OBJECT_NAME":"STRIX-3","OBJECT_ID":"2024-047A","EPOCH":"2026-07-16T06:47:50.372160","CLASSIFICATION_TYPE":"U","MEAN_MOTION":15.19819729,"ECCENTRICITY":0.00118553,"INCLINATION":97.6637,"RA_OF_ASC_NODE":173.3993,"ARG_OF_PERICENTER":330.8756,"MEAN_ANOMALY":29.1816,"EPHEMERIS_TYPE":0,"NORAD_CAT_ID":59224,"ELEMENT_SET_NO":999,"REV_AT_EPOCH":12916,"BSTAR":0.00021363707,"MEAN_MOTION_DOT":0.00004513,"MEAN_MOTION_DDOT":0},{"OBJECT_NAME":"STRIX-4","OBJECT_ID":"2024-137A","EPOCH":"2026-07-16T03:34:20.902656","CLASSIFICATION_TYPE":"U","MEAN_MOTION":15.33332057,"ECCENTRICITY":0.0016227,"INCLINATION":43.0153,"RA_OF_ASC_NODE":120.1324,"ARG_OF_PERICENTER":138.3775,"MEAN_ANOMALY":221.8317,"EPHEMERIS_TYPE":0,"NORAD_CAT_ID":60352,"ELEMENT_SET_NO":999,"REV_AT_EPOCH":10846,"BSTAR":0.00030962866,"MEAN_MOTION_DOT":0.00009956,"MEAN_MOTION_DDOT":0},{"OBJECT_NAME":"STRIX-2","OBJECT_ID":"2024-248A","EPOCH":"2026-07-16T07:33:35.290656","CLASSIFICATION_TYPE":"U","MEAN_MOTION":15.09196049,"ECCENTRICITY":0.00137687,"INCLINATION":97.6299,"RA_OF_ASC_NODE":152.7939,"ARG_OF_PERICENTER":231.3668,"MEAN_ANOMALY":128.6329,"EPHEMERIS_TYPE":0,"NORAD_CAT_ID":62406,"ELEMENT_SET_NO":999,"REV_AT_EPOCH":8598,"BSTAR":0.00014149905,"MEAN_MOTION_DOT":0.00002188,"MEAN_MOTION_DDOT":0},{"OBJECT_NAME":"STRIX-5","OBJECT_ID":"2025-229A","EPOCH":"2026-07-15T23:31:57.675360","CLASSIFICATION_TYPE":"U","MEAN_MOTION":15.04591974,"ECCENTRICITY":0.00379509,"INCLINATION":41.9274,"RA_OF_ASC_NODE":127.7109,"ARG_OF_PERICENTER":242.521,"MEAN_ANOMALY":117.1755,"EPHEMERIS_TYPE":0,"NORAD_CAT_ID":65971,"ELEMENT_SET_NO":999,"REV_AT_EPOCH":4131,"BSTAR":0.00013245211,"MEAN_MOTION_DOT":0.00001723,"MEAN_MOTION_DDOT":0},{"OBJECT_NAME":"STRIX-6","OBJECT_ID":"2026-056A","EPOCH":"2026-07-16T07:14:18.793824","CLASSIFICATION_TYPE":"U","MEAN_MOTION":15.00329917,"ECCENTRICITY":0.00166136,"INCLINATION":50.2825,"RA_OF_ASC_NODE":212.1505,"ARG_OF_PERICENTER":355.4109,"MEAN_ANOMALY":4.6686,"EPHEMERIS_TYPE":0,"NORAD_CAT_ID":68291,"ELEMENT_SET_NO":999,"REV_AT_EPOCH":1764,"BSTAR":0.000092340493,"MEAN_MOTION_DOT":0.00000906,"MEAN_MOTION_DDOT":0},{"OBJECT_NAME":"STRIX-7","OBJECT_ID":"2026-112A","EPOCH":"2026-07-16T01:06:58.466592","CLASSIFICATION_TYPE":"U","MEAN_MOTION":15.01611801,"ECCENTRICITY":0.002482,"INCLINATION":44.9081,"RA_OF_ASC_NODE":40.8544,"ARG_OF_PERICENTER":212.366,"MEAN_ANOMALY":147.569,"EPHEMERIS_TYPE":0,"NORAD_CAT_ID":69177,"ELEMENT_SET_NO":999,"REV_AT_EPOCH":821,"BSTAR":0.00015403181,"MEAN_MOTION_DOT":0.00001807,"MEAN_MOTION_DDOT":0},{"OBJECT_NAME":"STRIX-8","OBJECT_ID":"2026-146A","EPOCH":"2026-07-15T22:46:48.745056","CLASSIFICATION_TYPE":"U","MEAN_MOTION":15.04437812,"ECCENTRICITY":0.00070719,"INCLINATION":41.9903,"RA_OF_ASC_NODE":8.9164,"ARG_OF_PERICENTER":27.8018,"MEAN_ANOMALY":332.3186,"EPHEMERIS_TYPE":0,"NORAD_CAT_ID":69701,"ELEMENT_SET_NO":999,"REV_AT_EPOCH":289,"BSTAR":0.00017341492,"MEAN_MOTION_DOT":0.00002275,"MEAN_MOTION_DDOT":0}]}
