STRIX-1                 
1 53815U 22113A   26197.28582833  .00013033  00000+0  31754-3 0  9997
2 53815  97.4475 259.8519 0005547 129.2297 230.9443 15.41032354211920
STRIX-3                 
1 59224U 24047A   26197.28322190  .00004513  00000+0  21364-3 0  9992
2 59224  97.6637 173.3993 0011855 330.8756  29.1816 15.19819729129167
STRIX-4                 
1 60352U 24137A   26197.14885304  .00009956  00000+0  30963-3 0  9993
2 60352  43.0153 120.1324 0016227 138.3775 221.8317 15.33332057108464
STRIX-2                 
1 62406U 24248A   26197.31499179  .00002188  00000+0  14150-3 0  9998
2 62406  97.6299 152.7939 0013768 231.3668 128.6329 15.09196049 85987
STRIX-5                 
1 65971U 25229A   26196.98052865  .00001723  00000+0  13245-3 0  9995
2 65971  41.9274 127.7109 0037950 242.5210 117.1755 15.04591974 41315
STRIX-6                 
1 68291U 26056A   26197.30160641  .00000906  00000+0  92340-4 0  9997
2 68291  50.2825 212.1505 0016613 355.4109   4.6686 15.00329917 17645
STRIX-7                 
1 69177U 26112A   26197.04651003  .00001807  00000+0  15403-3 0  9997
2 69177  44.9081  40.8544 0024820 212.3660 147.5690 15.01611801  8216
STRIX-8                 
1 69701U 26146A   26196.94917529  .00002275  00000+0  17341-3 0  9996
2 69701  41.9903   8.9164 0007071  27.8018 332.3186 15.04437812  2890
